[{"OBJECT_NAME":"YAOGAN-36 04C","OBJECT_ID":"2022-171E","EPOCH":"2026-03-09T18:55:44.889600","MEAN_MOTION":15.29852307,"ECCENTRICITY":0.00066848,"INCLINATION":34.9797,"RA_OF_ASC_NODE":96.6578,"ARG_OF_PERICENTER":275.3761,"MEAN_ANOMALY":84.6192,"EPHEMERIS_TYPE":0,"CLASSIFICATION_TYPE":"U","NORAD_CAT_ID":54750,"ELEMENT_SET_NO":999,"REV_AT_EPOCH":18024,"BSTAR":0.00054591902,"MEAN_MOTION_DOT":0.00016196,"MEAN_MOTION_DDOT":0},{"OBJECT_NAME":"STARLINK-32529","OBJECT_ID":"2024-224A","EPOCH":"2026-03-08T14:50:06.982368","MEAN_MOTION":15.27605204,"ECCENTRICITY":0.00015341,"INCLINATION":43.001,"RA_OF_ASC_NODE":164.3946,"ARG_OF_PERICENTER":275.7458,"MEAN_ANOMALY":84.3218,"EPHEMERIS_TYPE":0,"CLASSIFICATION_TYPE":"U","NORAD_CAT_ID":62139,"ELEMENT_SET_NO":999,"REV_AT_EPOCH":7225,"BSTAR":0.0015124473,"MEAN_MOTION_DOT":0.00041625,"MEAN_MOTION_DDOT":0}]
