YAOGAN-36 04C           
1 54750U 22171E   26068.78871400  .00016196  00000+0  54592-3 0  9991
2 54750  34.9797  96.6578 0006685 275.3761  84.6192 15.29852307180246
STARLINK-32529          
1 62139U 24224A   26067.61813637  .00041625  00000+0  15124-2 0  9993
2 62139  43.0010 164.3946 0001534 275.7458  84.3218 15.27605204 72259
